0 DELTA 1 DEB
1 12178U 78026T   13282.26777642  .00000108  00000-0  11495-3 0  3838
2 12178 099.1649 031.0612 0063402 091.7523 299.8717 13.93061125659783
0 DELTA 1 DEB
1 12178U 78026T   13287.30095777  .00000253  00000-0  22461-3 0  3858
2 12178 099.1660 036.0447 0063360 078.2112 341.2496 13.93062382660485
0 DELTA 1 DEB
1 12178U 78026T   13289.75675194  .00000058  00000-0  77374-4 0  3864
2 12178 099.1661 038.4766 0063273 071.6221 057.0340 13.93065805660828
0 DELTA 1 DEB
1 12178U 78026T   13292.25797802 -.00000005  00000-0  29166-4 0  3874
2 12178 099.1659 040.9536 0063090 064.8561 000.7458 13.93067138661171
0 DELTA 1 DEB
1 12178U 78026T   13294.26659213  .00000081  00000-0  94520-4 0  3880
2 12178 099.1656 042.9426 0063005 059.4430 353.9857 13.93066496661452
